ONEWEB-0158             
1 48054U 21025N   26185.80150829  .00000193  00000+0  49275-3 0  9998
2 48054  87.8978 316.7121 0001729 105.0218 255.1103 13.13469429255941
ONEWEB-0157             
1 48055U 21025P   26185.90309334  .00000217  00000+0  55795-3 0  9998
2 48055  87.8977 316.6970 0002279 100.8496 259.2890 13.13470674255890
ONEWEB-0162             
1 48056U 21025Q   26185.80307779  .00000214  00000+0  55170-3 0  9993
2 48056  87.8973 316.7174 0001947  94.5610 265.5742 13.13469540255854
ONEWEB-0155             
1 48057U 21025R   26185.81000526  .00000926  00000+0  25020-2 0  9995
2 48057  87.8973 316.7126 0001990 100.1737 259.9616 13.13466307255994
ONEWEB-0149             
1 48058U 21025S   26185.60345720  .00000084  00000+0  19613-3 0  9998
2 48058  87.8979 316.7575 0001949  92.6972 267.4380 13.13469073255770
ONEWEB-0148             
1 48059U 21025T   26185.79474247 -.00000021  00000+0 -92658-4 0  9990
2 48059  87.8976 316.7254 0002175  84.9060 275.2317 13.13469559255929
ONEWEB-0160             
1 48060U 21025U   26185.65931313  .00000351  00000+0  92719-3 0  9990
2 48060  87.8973 316.7482 0001163 102.5686 257.5574 13.13469588255850
ONEWEB-0163             
1 48061U 21025V   26186.17732183  .00000036  00000+0  64215-4 0  9994
2 48061  87.8980 316.6409 0002183 100.6176 259.5199 13.13469090256048
ONEWEB-0159             
1 48062U 21025W   26185.78796981 -.00000198  00000+0 -57788-3 0  9994
2 48062  87.8979 316.7124 0002148 101.7410 258.3961 13.13469702255915
ONEWEB-0164             
1 48063U 21025X   26185.61698897 -.00000266  00000+0 -76439-3 0  9994
2 48063  87.8982 316.7525 0001820 100.2071 259.9263 13.13468727255871
ONEWEB-0167             
1 48064U 21025Y   26185.79729050 -.00000019  00000+0 -87828-4 0  9991
2 48064  87.8971 316.7251 0002304 114.2061 245.9309 13.13469394255886
ONEWEB-0166             
1 48065U 21025Z   26185.82014140  .00000351  00000+0  92544-3 0  9990
2 48065  87.8982 316.6935 0001936  97.8343 262.3006 13.13469468255964
ONEWEB-0151             
1 48066U 21025AA  26185.82182560  .00000277  00000+0  72441-3 0  9994
2 48066  87.8973 316.7084 0001917 103.8049 256.3293 13.13468810255906
ONEWEB-0170             
1 48067U 21025AB  26185.60174993  .00000090  00000+0  21158-3 0  9994
2 48067  87.8977 316.7546 0001531 113.7541 246.3749 13.13467662255834
ONEWEB-0168             
1 48068U 21025AC  26185.81505445  .00000343  00000+0  90409-3 0  9994
2 48068  87.8981 316.7128 0001965 100.7478 259.3872 13.13468627255879
ONEWEB-0173             
1 48069U 21025AD  26185.80659319  .00000303  00000+0  79556-3 0  9990
2 48069  87.8973 316.7153 0002237 104.4459 255.6919 13.13469563256111
ONEWEB-0171             
1 48070U 21025AE  26185.61529402 -.00000150  00000+0 -44538-3 0  9994
2 48070  87.8971 316.7608 0001903 101.9785 258.1557 13.13469468255905
ONEWEB-0172             
1 48071U 21025AF  26185.89970110  .00000289  00000+0  75576-3 0  9998
2 48071  87.8979 316.6949 0002004 104.7063 255.4288 13.13470112256836
ONEWEB-0174             
1 48072U 21025AG  26185.88108006  .00000214  00000+0  55193-3 0  9996
2 48072  87.8977 316.6980 0001987  95.6161 264.5195 13.13469351256152
ONEWEB-0175             
1 48073U 21025AH  26186.29243416  .00000100  00000+0  23836-3 0  9991
2 48073  87.8983 316.6013 0001852 109.9218 250.2111 13.13468662255861
ONEWEB-0177             
1 48074U 21025AJ  26185.61868521 -.00000213  00000+0 -61874-3 0  9998
2 48074  87.8979 316.7534 0002142  96.9018 263.2355 13.13469748255963
ONEWEB-0178             
1 48075U 21025AK  26185.78980825 -.00000147  00000+0 -43832-3 0  9999
2 48075  87.8971 316.7301 0002048 106.2700 253.8655 13.13470283256039
ONEWEB-0108             
1 48076U 21025AL  26185.59668028  .00000301  00000+0  78967-3 0  9994
2 48076  87.8984 316.7496 0001779  93.7519 266.3814 13.13468654255930
ONEWEB-0169             
1 48077U 21025AM  26185.78119549 -.00000307  00000+0 -87559-3 0  9990
2 48077  87.8976 316.7199 0001980  96.7791 263.3564 13.13469153254619
ONEWEB-0176             
1 48210U 21031A   26185.76219407 -.00000167  00000+0 -48591-3 0  9995
2 48210  87.8973 286.1974 0002065 102.8109 257.3251 13.14501681250620
ONEWEB-0184             
1 48211U 21031B   26185.73524042  .00000213  00000+0  54007-3 0  9996
2 48211  87.8975 286.2044 0002289 121.6277 238.5076 13.14501949250594
ONEWEB-0179             
1 48212U 21031C   26186.20528744  .00000541  00000+0  17109-3 0  9999
2 48212  87.8995 282.6364 0220338 198.0084 161.3217 14.25541365251616
ONEWEB-0180             
1 48213U 21031D   26186.27124382  .00000234  00000+0  59561-3 0  9994
2 48213  87.8984 286.0942 0002393 104.3202 255.8194 13.14502791250592
ONEWEB-0218             
1 48214U 21031E   26186.21732203 -.00000056  00000+0 -18431-3 0  9991
2 48214  87.8982 286.1043 0002592 117.6068 242.5325 13.14503610250749
ONEWEB-0209             
1 48215U 21031F   26185.82563845  .00000025  00000+0  33768-4 0  9997
2 48215  87.8973 286.1986 0002200  96.0699 264.0682 13.14500370250691
