OBJECT_NAME,OBJECT_ID,EPOCH,MEAN_MOTION,ECCENTRICITY,INCLINATION,RA_OF_ASC_NODE,ARG_OF_PERICENTER,MEAN_ANOMALY,EPHEMERIS_TYPE,CLASSIFICATION_TYPE,NORAD_CAT_ID,ELEMENT_SET_NO,REV_AT_EPOCH,BSTAR,MEAN_MOTION_DOT,MEAN_MOTION_DDOT
ONEWEB-0158,2021-025N,2026-07-04T19:14:10.316256,13.13469429,.00017294,87.8978,316.7121,105.0218,255.1103,0,U,48054,999,25594,.49274558E-3,.193E-5,0
ONEWEB-0157,2021-025P,2026-07-04T21:40:27.264576,13.13470674,.0002279,87.8977,316.6970,100.8496,259.2890,0,U,48055,999,25589,.55794785E-3,.217E-5,0
ONEWEB-0162,2021-025Q,2026-07-04T19:16:25.921056,13.13469540,.00019475,87.8973,316.7174,94.5610,265.5742,0,U,48056,999,25585,.551696E-3,.214E-5,0
ONEWEB-0155,2021-025R,2026-07-04T19:26:24.454464,13.13466307,.000199,87.8973,316.7126,100.1737,259.9616,0,U,48057,999,25599,.25020234E-2,.926E-5,0
ONEWEB-0149,2021-025S,2026-07-04T14:28:58.702080,13.13469073,.00019491,87.8979,316.7575,92.6972,267.4380,0,U,48058,999,25577,.19612824E-3,.84E-6,0
ONEWEB-0148,2021-025T,2026-07-04T19:04:25.749408,13.13469559,.0002175,87.8976,316.7254,84.9060,275.2317,0,U,48059,999,25592,-.92657795E-4,-.21E-6,0
ONEWEB-0160,2021-025U,2026-07-04T15:49:24.654432,13.13469588,.0001163,87.8973,316.7482,102.5686,257.5574,0,U,48060,999,25585,.92718678E-3,.351E-5,0
ONEWEB-0163,2021-025V,2026-07-05T04:15:20.606112,13.13469090,.00021832,87.8980,316.6409,100.6176,259.5199,0,U,48061,999,25604,.64215467E-4,.36E-6,0
ONEWEB-0159,2021-025W,2026-07-04T18:54:40.591584,13.13469702,.0002148,87.8979,316.7124,101.7410,258.3961,0,U,48062,999,25591,-.57788118E-3,-.198E-5,0
ONEWEB-0164,2021-025X,2026-07-04T14:48:27.847008,13.13468727,.00018201,87.8982,316.7525,100.2071,259.9263,0,U,48063,999,25587,-.76439219E-3,-.266E-5,0
ONEWEB-0167,2021-025Y,2026-07-04T19:08:05.899200,13.13469394,.00023042,87.8971,316.7251,114.2061,245.9309,0,U,48064,999,25588,-.87827971E-4,-.19E-6,0
ONEWEB-0166,2021-025Z,2026-07-04T19:41:00.216960,13.13469468,.00019363,87.8982,316.6935,97.8343,262.3006,0,U,48065,999,25596,.9254425E-3,.351E-5,0
ONEWEB-0151,2021-025AA,2026-07-04T19:43:25.731840,13.13468810,.00019173,87.8973,316.7084,103.8049,256.3293,0,U,48066,999,25590,.72441453E-3,.277E-5,0
ONEWEB-0170,2021-025AB,2026-07-04T14:26:31.193952,13.13467662,.00015316,87.8977,316.7546,113.7541,246.3749,0,U,48067,999,25583,.21158263E-3,.9E-6,0
ONEWEB-0168,2021-025AC,2026-07-04T19:33:40.704480,13.13468627,.00019656,87.8981,316.7128,100.7478,259.3872,0,U,48068,999,25587,.90409282E-3,.343E-5,0
ONEWEB-0173,2021-025AD,2026-07-04T19:21:29.651616,13.13469563,.00022376,87.8973,316.7153,104.4459,255.6919,0,U,48069,999,25611,.79555976E-3,.303E-5,0
ONEWEB-0171,2021-025AE,2026-07-04T14:46:01.403328,13.13469468,.00019034,87.8971,316.7608,101.9785,258.1557,0,U,48070,999,25590,-.44537615E-3,-.15E-5,0
ONEWEB-0172,2021-025AF,2026-07-04T21:35:34.175040,13.13470112,.00020042,87.8979,316.6949,104.7063,255.4288,0,U,48071,999,25683,.75575816E-3,.289E-5,0
ONEWEB-0174,2021-025AG,2026-07-04T21:08:45.317184,13.13469351,.00019872,87.8977,316.6980,95.6161,264.5195,0,U,48072,999,25615,.55192866E-3,.214E-5,0
ONEWEB-0175,2021-025AH,2026-07-05T07:01:06.311424,13.13468662,.0001852,87.8983,316.6013,109.9218,250.2111,0,U,48073,999,25586,.23836133E-3,.1E-5,0
ONEWEB-0177,2021-025AJ,2026-07-04T14:50:54.402144,13.13469748,.00021427,87.8979,316.7534,96.9018,263.2355,0,U,48074,999,25596,-.61874161E-3,-.213E-5,0
ONEWEB-0178,2021-025AK,2026-07-04T18:57:19.432800,13.13470283,.00020485,87.8971,316.7301,106.2700,253.8655,0,U,48075,999,25603,-.4383249E-3,-.147E-5,0
ONEWEB-0108,2021-025AL,2026-07-04T14:19:13.176192,13.13468654,.00017797,87.8984,316.7496,93.7519,266.3814,0,U,48076,999,25593,.78966999E-3,.301E-5,0
ONEWEB-0169,2021-025AM,2026-07-04T18:44:55.290336,13.13469153,.00019802,87.8976,316.7199,96.7791,263.3564,0,U,48077,999,25461,-.875589E-3,-.307E-5,0
ONEWEB-0176,2021-031A,2026-07-04T18:17:33.567648,13.14501681,.0002065,87.8973,286.1974,102.8109,257.3251,0,U,48210,999,25062,-.48590656E-3,-.167E-5,0
ONEWEB-0184,2021-031B,2026-07-04T17:38:44.772288,13.14501949,.00022897,87.8975,286.2044,121.6277,238.5076,0,U,48211,999,25059,.54007128E-3,.213E-5,0
ONEWEB-0179,2021-031C,2026-07-05T04:55:36.834816,14.25541365,.02203383,87.8995,282.6364,198.0084,161.3217,0,U,48212,999,25161,.17109149E-3,.541E-5,0
ONEWEB-0180,2021-031D,2026-07-05T06:30:35.466048,13.14502791,.0002393,87.8984,286.0942,104.3202,255.8194,0,U,48213,999,25059,.59560837E-3,.234E-5,0
ONEWEB-0218,2021-031E,2026-07-05T05:12:56.623392,13.14503610,.00025928,87.8982,286.1043,117.6068,242.5325,0,U,48214,999,25074,-.18430672E-3,-.56E-6,0
ONEWEB-0209,2021-031F,2026-07-04T19:48:55.162080,13.14500370,.00022,87.8973,286.1986,96.0699,264.0682,0,U,48215,999,25069,.33767772E-4,.25E-6,0
